LEMUR-2-ARIANNA         
1 62699U 25009CU  26165.49376870  .00007854  00000+0  59639-3 0  9990
2 62699  97.6902 246.8982 0003914 124.0775 236.0822 15.02451701 77158
LEMUR-2-ALISIA          
1 62706U 25009DB  26165.47218559  .00007543  00000+0  56875-3 0  9990
2 62706  97.6966 247.6604 0001652 190.1389 169.9803 15.02737684 99759
LEMUR-2-ROUNDTRIPPER    
1 62711U 25009DG  26165.16595248  .00009213  00000+0  67514-3 0  9993
2 62711  97.7260 247.8490 0005018 140.0023 220.1573 15.03748203 77173
LEMUR-2-MYNAMEISJEFF    
1 62712U 25009DH  26165.23091833  .00008467  00000+0  62081-3 0  9997
2 62712  97.7307 248.2932 0003239 161.8675 198.2666 15.03758435 77186
LEMUR-2-LEIA-PHILIP     
1 63246U 25052AN  26165.59707112  .00001340  00000+0  12051-3 0  9996
2 63246  97.6846  57.5917 0002310 217.9804 142.1256 14.97314717 68283
LEMUR-2-LIA-MARTIN      
1 63248U 25052AQ  26165.26892141  .00004065  00000+0  35108-3 0  9994
2 63248  97.6913  57.7401 0002725 159.6920 200.4411 14.97786433 68246
LEMUR-2-DELOITTE-1      
1 63259U 25052BB  26165.57899796  .00004173  00000+0  36213-3 0  9991
2 63259  97.6924  58.3738 0003231 102.5936 257.5648 14.97584930 68307
LEMUR-2-EMERSONROSE     
1 63261U 25052BD  26165.22298797  .00003630  00000+0  30390-3 0  9997
2 63261  97.6898  58.5769 0001903  66.5218 293.6205 14.99062117 68290
LEMUR-2-MARACHE-FRAN    
1 63262U 25052BE  26165.60055741  .00005391  00000+0  43718-3 0  9994
2 63262  97.6954  59.2598 0005642  32.1325 328.0241 15.00080229 68373
LEMUR-2-THEFALCONER     
1 63264U 25052BG  26165.27087963  .00002981  00000+0  26157-3 0  9990
2 63264  97.6881  57.6946 0003043  42.2450 317.9006 14.97374809 68255
LEMUR-2-UNTITLED-SC     
1 63351U 25061A   26165.44408772  .00003759  00000+0  21327-3 0  9999
2 63351  97.5630 140.8258 0016900 275.1315  84.7987 15.13458721 67179
LEMUR-2-ESPERANZA       
1 63352U 25061B   26165.48750593  .00004406  00000+0  24872-3 0  9993
2 63352  97.5637 140.9616 0016550 274.2140  85.7200 15.13551781 67183
LEMUR-2-KREMPEL-BRO2    
1 63353U 25061C   26165.44916485  .00003814  00000+0  21312-3 0  9992
2 63353  97.5685 141.4536 0017407 266.0853  93.8388 15.13988701 67190
LEMUR-2-THERMORAPTOR    
1 63354U 25061D   26165.49746578  .00004135  00000+0  23030-3 0  9998
2 63354  97.5689 141.5767 0017160 264.7140  95.2133 15.14066945 67206
LEMUR-2-NEUROSPICY      
1 63355U 25061E   26165.46934548  .00004541  00000+0  25191-3 0  9993
2 63355  97.5618 141.1770 0014995 268.7209  91.2304 15.14183266 67204
LEMUR-2-TILLINFINITY    
1 63356U 25061F   26165.50565588  .00003731  00000+0  20421-3 0  9994
2 63356  97.5600 141.5016 0016223 255.2763 104.6671 15.14767536 67232
LEMUR-2-KREMPEL-BRO1    
1 63357U 25061G   26165.54485157  .00004613  00000+0  25285-3 0  9995
2 63357  97.5604 141.4576 0016928 256.6854 103.2491 15.14574469 67231
LEMUR-2-LANGER2SPACE    
1 63358U 25061H   26165.43866673  .00003874  00000+0  21495-3 0  9997
2 63358  97.5607 141.1669 0014850 267.0450  92.9083 15.14270023 67202
LEMUR-2-BALTO           
1 63395U 25052BH  26165.45180458  .00005820  00000+0  47165-3 0  9995
2 63395  97.6898  59.0928 0006891  65.0451 295.1488 15.00060391 68357
LEMUR-2-KRISH           
1 64561U 25135AK  26165.26549259  .00005529  00000+0  49568-3 0  9995
2 64561  97.7741 280.1615 0001693 103.3321 256.8089 14.96182335 53484
LEMUR-2-HUBBLE-4        
1 64565U 25135AP  26165.58992640  .00001563  00000+0  15507-3 0  9990
2 64565  97.7697 279.5275 0001097 325.2490  34.8657 14.93190498 53483
LEMUR-2-SEJONG-2        
1 64586U 25135BL  26165.56384683  .00003606  00000+0  32100-3 0  9991
2 64586  97.7690 280.6027 0004061 350.8443   9.2703 14.96679933 53558
LEMUR-2-HUBBLE-5        
1 64840U 25135BT  26165.27774597  .00001559  00000+0  15113-3 0  9999
2 64840  97.7715 279.8482 0005326   4.5787 355.5481 14.94128888 53470
LEMUR-2-KARENDARRELL    
1 64841U 25135BU  26165.58342372  .00007329  00000+0  59218-3 0  9991
2 64841  97.7679 281.7956 0009491 212.1969 147.8676 15.00077908 53623
LEMUR-2-LUCILLE-ROSE    
1 65403U 25135BV  26165.55721797  .00006370  00000+0  51465-3 0  9996
2 65403  97.7771 281.7859 0010956 292.9349  67.0717 15.00126663 48243
LEMUR-2-AFFIE-WAUWIE    
1 66295U 25248C   26165.17737354  .00015219  00000+0  57239-3 0  9992
2 66295  45.3886 131.2928 0007744  63.5131 296.6551 15.27058848 34134
LEMUR-2-DEANANDMAEVE    
1 66678U 25276N   26165.48340296  .00006916  00000+0  32685-3 0  9999
2 66678  97.4218 239.0035 0005987  23.7664 336.3846 15.19704263 30009
LEMUR-2-STAS-GORBUK     
1 66686U 25276W   26165.16798760  .00005753  00000+0  27525-3 0  9991
2 66686  97.4254 238.7486 0005391  25.4705 334.6795 15.19352529 29958
LEMUR-2-TEODOR          
1 66768U 25276DG  26165.15507771  .00006517  00000+0  29674-3 0  9997
2 66768  97.4157 238.9683 0002057 118.6510 241.4933 15.21021305 29987
LEMUR-2-LAILA           
1 66776U 25276DQ  26165.45832136  .00005510  00000+0  24977-3 0  9998
2 66776  97.4180 239.3859 0002056 139.5835 220.5554 15.21245498 30039
